ONEWEB-0549             
1 56051U 23043F   24297.75711748  .00000071  00000+0  14146-3 0  9999
2 56051  87.9355   3.7708 0001983  84.2387 275.8973 13.21827179 78775
ONEWEB-0550             
1 56052U 23043G   24297.74450082  .00000066  00000+0  12838-3 0  9990
2 56052  87.9352   3.7763 0001948 104.6517 255.4833 13.21827047 78770
ONEWEB-0551             
1 56053U 23043H   24297.92205748  .00000144  00000+0  34820-3 0  9990
2 56053  87.9128  18.9112 0002004  95.6525 264.4834 13.15548251 77343
ONEWEB-0552             
1 56054U 23043J   24297.73819713  .00000027  00000+0  34922-4 0  9997
2 56054  87.9351   3.7873 0002168 101.0487 259.0891 13.21824146 78776
ONEWEB-0553             
1 56055U 23043K   24297.66599592  .00000054  00000+0  10646-3 0  9996
2 56055  87.9132 348.6042 0001519  93.5065 266.6240 13.16592228 79825
ONEWEB-0554             
1 56056U 23043L   24297.65332454 -.00000068  00000+0 -21210-3 0  9994
2 56056  87.9135 348.6313 0002259 112.2581 247.8789 13.16591139 79801
ONEWEB-0555             
1 56057U 23043M   24297.69133387  .00000049  00000+0  94986-4 0  9991
2 56057  87.9132 348.5926 0001175 108.6925 251.4334 13.16593393 79817
ONEWEB-0557             
1 56058U 23043N   24297.70557909  .00000016  00000+0  87834-5 0  9993
2 56058  87.9132 348.6146 0001363 131.1168 229.0081 13.16593388 79816
